STARLINK-36962          
1 68269U 26055H   26089.25002315 -.01158800  40254-3 -32901-2 0  9992
2 68269  53.1579 234.3961 0000876  77.5247 202.9251 15.92700296  2941
STARLINK-37028          
1 68270U 26055J   26089.25002315 -.01189829  42293-3 -33544-2 0  9998
2 68270  53.1577 234.3731 0000770  72.0946 219.2123 15.92841024  2949
STARLINK-37029          
1 68271U 26055K   26089.25002315 -.01177234  41442-3 -33357-2 0  9993
2 68271  53.1577 234.3817 0000688  70.6217 216.7936 15.92742564  2941
STARLINK-36974          
1 68272U 26055L   26089.25002315 -.01274875  48009-3 -35744-2 0  9991
2 68272  53.1576 234.3636 0000683  68.2610 227.7601 15.92961561  2946
STARLINK-37019          
1 68273U 26055M   26089.25002315 -.01329276  51865-3 -37061-2 0  9996
2 68273  53.1576 234.3557 0000839  72.5286 226.9396 15.93077095  2942
STARLINK-37129          
1 68274U 26055N   26089.25002315 -.01385986  56027-3 -38454-2 0  9999
2 68274  53.1572 234.3480 0000656  70.9570 232.4218 15.93180087  2940
STARLINK-37123          
1 68275U 26055P   26089.25002315 -.01404044  57420-3 -38767-2 0  9992
2 68275  53.1577 234.3411 0000696  68.5288 238.1873 15.93274724  2945
STARLINK-37125          
1 68276U 26055Q   26089.25002315 -.01433850  59704-3 -39465-2 0  9993
2 68276  53.1574 234.3317 0000680  73.2062 238.0986 15.93339668  2947
STARLINK-36989          
1 68277U 26055R   26089.25002315 -.01447184  60848-3 -39402-2 0  9991
2 68277  53.1573 234.3070 0000634  82.0892 241.1703 15.93548082  2945
STARLINK-36982          
1 68278U 26055S   26089.25002315 -.01442006  60404-3 -39421-2 0  9999
2 68278  53.1572 234.3154 0000666  79.4196 240.1034 15.93470092  2941
STARLINK-36934          
1 68279U 26055T   26089.25002315 -.01446834  60732-3 -39700-2 0  9997
2 68279  53.1573 234.3229 0000649  74.0276 241.7197 15.93400656  2943
STARLINK-37070          
1 68280U 26055U   26089.25002315 -.01463665  62161-3 -39715-2 0  9994
2 68280  53.1574 234.2978 0000622  72.1343 255.5700 15.93615071  2943
