CCSDS_OMM_VERS = 2.0
CREATION_DATE  = 
ORIGINATOR     = 

OBJECT_NAME    = STARLINK-36962
OBJECT_ID      = 2026-055H
CENTER_NAME    = EARTH
REF_FRAME      = TEME
TIME_SYSTEM    = UTC
MEAN_ELEMENT_THEORY = SGP/SGP4

EPOCH          = 2026-03-30T06:00:02.000160
MEAN_MOTION    = 15.92700296
ECCENTRICITY   = .00008767
INCLINATION    = 53.1579
RA_OF_ASC_NODE = 234.3961
ARG_OF_PERICENTER = 77.5247
MEAN_ANOMALY   = 202.9251

EPHEMERIS_TYPE = 0
CLASSIFICATION_TYPE = U
NORAD_CAT_ID   = 68269
ELEMENT_SET_NO = 999
REV_AT_EPOCH   = 294
BSTAR          = -.3290126E-2
MEAN_MOTION_DOT = -.11588E-1
MEAN_MOTION_DDOT = .4025431E-3

CCSDS_OMM_VERS = 2.0
CREATION_DATE  = 
ORIGINATOR     = 

OBJECT_NAME    = STARLINK-37028
OBJECT_ID      = 2026-055J
CENTER_NAME    = EARTH
REF_FRAME      = TEME
TIME_SYSTEM    = UTC
MEAN_ELEMENT_THEORY = SGP/SGP4

EPOCH          = 2026-03-30T06:00:02.000160
MEAN_MOTION    = 15.92841024
ECCENTRICITY   = .00007703
INCLINATION    = 53.1577
RA_OF_ASC_NODE = 234.3731
ARG_OF_PERICENTER = 72.0946
MEAN_ANOMALY   = 219.2123

EPHEMERIS_TYPE = 0
CLASSIFICATION_TYPE = U
NORAD_CAT_ID   = 68270
ELEMENT_SET_NO = 999
REV_AT_EPOCH   = 294
BSTAR          = -.33544186E-2
MEAN_MOTION_DOT = -.1189829E-1
MEAN_MOTION_DDOT = .42292672E-3

CCSDS_OMM_VERS = 2.0
CREATION_DATE  = 
ORIGINATOR     = 

OBJECT_NAME    = STARLINK-37029
OBJECT_ID      = 2026-055K
CENTER_NAME    = EARTH
REF_FRAME      = TEME
TIME_SYSTEM    = UTC
MEAN_ELEMENT_THEORY = SGP/SGP4

EPOCH          = 2026-03-30T06:00:02.000160
MEAN_MOTION    = 15.92742564
ECCENTRICITY   = .00006883
INCLINATION    = 53.1577
RA_OF_ASC_NODE = 234.3817
ARG_OF_PERICENTER = 70.6217
MEAN_ANOMALY   = 216.7936

EPHEMERIS_TYPE = 0
CLASSIFICATION_TYPE = U
NORAD_CAT_ID   = 68271
ELEMENT_SET_NO = 999
REV_AT_EPOCH   = 294
BSTAR          = -.3335699E-2
MEAN_MOTION_DOT = -.1177234E-1
MEAN_MOTION_DDOT = .41442481E-3

CCSDS_OMM_VERS = 2.0
CREATION_DATE  = 
ORIGINATOR     = 

OBJECT_NAME    = STARLINK-36974
OBJECT_ID      = 2026-055L
CENTER_NAME    = EARTH
REF_FRAME      = TEME
TIME_SYSTEM    = UTC
MEAN_ELEMENT_THEORY = SGP/SGP4

EPOCH          = 2026-03-30T06:00:02.000160
MEAN_MOTION    = 15.92961561
ECCENTRICITY   = .00006834
INCLINATION    = 53.1576
RA_OF_ASC_NODE = 234.3636
ARG_OF_PERICENTER = 68.2610
MEAN_ANOMALY   = 227.7601

EPHEMERIS_TYPE = 0
CLASSIFICATION_TYPE = U
NORAD_CAT_ID   = 68272
ELEMENT_SET_NO = 999
REV_AT_EPOCH   = 294
BSTAR          = -.3574357E-2
MEAN_MOTION_DOT = -.1274875E-1
MEAN_MOTION_DDOT = .48008947E-3

CCSDS_OMM_VERS = 2.0
CREATION_DATE  = 
ORIGINATOR     = 

OBJECT_NAME    = STARLINK-37019
OBJECT_ID      = 2026-055M
CENTER_NAME    = EARTH
REF_FRAME      = TEME
TIME_SYSTEM    = UTC
MEAN_ELEMENT_THEORY = SGP/SGP4

EPOCH          = 2026-03-30T06:00:02.000160
MEAN_MOTION    = 15.93077095
ECCENTRICITY   = .00008398
INCLINATION    = 53.1576
RA_OF_ASC_NODE = 234.3557
ARG_OF_PERICENTER = 72.5286
MEAN_ANOMALY   = 226.9396

EPHEMERIS_TYPE = 0
CLASSIFICATION_TYPE = U
NORAD_CAT_ID   = 68273
ELEMENT_SET_NO = 999
REV_AT_EPOCH   = 294
BSTAR          = -.37061231E-2
MEAN_MOTION_DOT = -.1329276E-1
MEAN_MOTION_DDOT = .51864717E-3

CCSDS_OMM_VERS = 2.0
CREATION_DATE  = 
ORIGINATOR     = 

OBJECT_NAME    = STARLINK-37129
OBJECT_ID      = 2026-055N
CENTER_NAME    = EARTH
REF_FRAME      = TEME
TIME_SYSTEM    = UTC
MEAN_ELEMENT_THEORY = SGP/SGP4

EPOCH          = 2026-03-30T06:00:02.000160
MEAN_MOTION    = 15.93180087
ECCENTRICITY   = .00006568
INCLINATION    = 53.1572
RA_OF_ASC_NODE = 234.3480
ARG_OF_PERICENTER = 70.9570
MEAN_ANOMALY   = 232.4218

EPHEMERIS_TYPE = 0
CLASSIFICATION_TYPE = U
NORAD_CAT_ID   = 68274
ELEMENT_SET_NO = 999
REV_AT_EPOCH   = 294
BSTAR          = -.38453673E-2
MEAN_MOTION_DOT = -.1385986E-1
MEAN_MOTION_DDOT = .56027182E-3

CCSDS_OMM_VERS = 2.0
CREATION_DATE  = 
ORIGINATOR     = 

OBJECT_NAME    = STARLINK-37123
OBJECT_ID      = 2026-055P
CENTER_NAME    = EARTH
REF_FRAME      = TEME
TIME_SYSTEM    = UTC
MEAN_ELEMENT_THEORY = SGP/SGP4

EPOCH          = 2026-03-30T06:00:02.000160
MEAN_MOTION    = 15.93274724
ECCENTRICITY   = .00006969
INCLINATION    = 53.1577
RA_OF_ASC_NODE = 234.3411
ARG_OF_PERICENTER = 68.5288
MEAN_ANOMALY   = 238.1873

EPHEMERIS_TYPE = 0
CLASSIFICATION_TYPE = U
NORAD_CAT_ID   = 68275
ELEMENT_SET_NO = 999
REV_AT_EPOCH   = 294
BSTAR          = -.38767289E-2
MEAN_MOTION_DOT = -.1404044E-1
MEAN_MOTION_DDOT = .57420212E-3

CCSDS_OMM_VERS = 2.0
CREATION_DATE  = 
ORIGINATOR     = 

OBJECT_NAME    = STARLINK-37125
OBJECT_ID      = 2026-055Q
CENTER_NAME    = EARTH
REF_FRAME      = TEME
TIME_SYSTEM    = UTC
MEAN_ELEMENT_THEORY = SGP/SGP4

EPOCH          = 2026-03-30T06:00:02.000160
MEAN_MOTION    = 15.93339668
ECCENTRICITY   = .00006803
INCLINATION    = 53.1574
RA_OF_ASC_NODE = 234.3317
ARG_OF_PERICENTER = 73.2062
MEAN_ANOMALY   = 238.0986

EPHEMERIS_TYPE = 0
CLASSIFICATION_TYPE = U
NORAD_CAT_ID   = 68276
ELEMENT_SET_NO = 999
REV_AT_EPOCH   = 294
BSTAR          = -.39465426E-2
MEAN_MOTION_DOT = -.143385E-1
MEAN_MOTION_DDOT = .59703885E-3

CCSDS_OMM_VERS = 2.0
CREATION_DATE  = 
ORIGINATOR     = 

OBJECT_NAME    = STARLINK-36989
OBJECT_ID      = 2026-055R
CENTER_NAME    = EARTH
REF_FRAME      = TEME
TIME_SYSTEM    = UTC
MEAN_ELEMENT_THEORY = SGP/SGP4

EPOCH          = 2026-03-30T06:00:02.000160
MEAN_MOTION    = 15.93548082
ECCENTRICITY   = .00006347
INCLINATION    = 53.1573
RA_OF_ASC_NODE = 234.3070
ARG_OF_PERICENTER = 82.0892
MEAN_ANOMALY   = 241.1703

EPHEMERIS_TYPE = 0
CLASSIFICATION_TYPE = U
NORAD_CAT_ID   = 68277
ELEMENT_SET_NO = 999
REV_AT_EPOCH   = 294
BSTAR          = -.39401571E-2
MEAN_MOTION_DOT = -.1447184E-1
MEAN_MOTION_DDOT = .60847598E-3

CCSDS_OMM_VERS = 2.0
CREATION_DATE  = 
ORIGINATOR     = 

OBJECT_NAME    = STARLINK-36982
OBJECT_ID      = 2026-055S
CENTER_NAME    = EARTH
REF_FRAME      = TEME
TIME_SYSTEM    = UTC
MEAN_ELEMENT_THEORY = SGP/SGP4

EPOCH          = 2026-03-30T06:00:02.000160
MEAN_MOTION    = 15.93470092
ECCENTRICITY   = .00006668
INCLINATION    = 53.1572
RA_OF_ASC_NODE = 234.3154
ARG_OF_PERICENTER = 79.4196
MEAN_ANOMALY   = 240.1034

EPHEMERIS_TYPE = 0
CLASSIFICATION_TYPE = U
NORAD_CAT_ID   = 68278
ELEMENT_SET_NO = 999
REV_AT_EPOCH   = 294
BSTAR          = -.39420707E-2
MEAN_MOTION_DOT = -.1442006E-1
MEAN_MOTION_DDOT = .60403646E-3

CCSDS_OMM_VERS = 2.0
CREATION_DATE  = 
ORIGINATOR     = 

OBJECT_NAME    = STARLINK-36934
OBJECT_ID      = 2026-055T
CENTER_NAME    = EARTH
REF_FRAME      = TEME
TIME_SYSTEM    = UTC
MEAN_ELEMENT_THEORY = SGP/SGP4

EPOCH          = 2026-03-30T06:00:02.000160
MEAN_MOTION    = 15.93400656
ECCENTRICITY   = .00006498
INCLINATION    = 53.1573
RA_OF_ASC_NODE = 234.3229
ARG_OF_PERICENTER = 74.0276
MEAN_ANOMALY   = 241.7197

EPHEMERIS_TYPE = 0
CLASSIFICATION_TYPE = U
NORAD_CAT_ID   = 68279
ELEMENT_SET_NO = 999
REV_AT_EPOCH   = 294
BSTAR          = -.39699585E-2
MEAN_MOTION_DOT = -.1446834E-1
MEAN_MOTION_DDOT = .60732023E-3

CCSDS_OMM_VERS = 2.0
CREATION_DATE  = 
ORIGINATOR     = 

OBJECT_NAME    = STARLINK-37070
OBJECT_ID      = 2026-055U
CENTER_NAME    = EARTH
REF_FRAME      = TEME
TIME_SYSTEM    = UTC
MEAN_ELEMENT_THEORY = SGP/SGP4

EPOCH          = 2026-03-30T06:00:02.000160
MEAN_MOTION    = 15.93615071
ECCENTRICITY   = .00006223
INCLINATION    = 53.1574
RA_OF_ASC_NODE = 234.2978
ARG_OF_PERICENTER = 72.1343
MEAN_ANOMALY   = 255.5700

EPHEMERIS_TYPE = 0
CLASSIFICATION_TYPE = U
NORAD_CAT_ID   = 68280
ELEMENT_SET_NO = 999
REV_AT_EPOCH   = 294
BSTAR          = -.39715219E-2
MEAN_MOTION_DOT = -.1463665E-1
MEAN_MOTION_DDOT = .62161409E-3

